XRISM                   
1 57800U 23137A   23311.47153173  .00009603  00000+0  77640-3 0  9991
2 57800  31.0055 347.1796 0010284 164.7201 195.3745 14.98524267  9224
